BEIJING 1               
1 28890U 05043A   22218.52226449  .00000123  00000+0  34143-4 0  9992
2 28890  98.1245 340.0215 0015670  22.2506 337.9369 14.61474461894457
HJ-1A                   
1 33320U 08041A   22218.52321845  .00000143  00000+0  26621-4 0  9997
2 33320  97.6747 249.2276 0022546  70.5210 289.8442 14.77883200749781
HJ-1B                   
1 33321U 08041B   22218.54029723  .00000393  00000+0  61048-4 0  9999
2 33321  97.6917 252.9097 0035817  87.3822 273.1502 14.77808196749787
YAOGAN 4                
1 33446U 08061A   22218.42850174  .00000235  00000+0  40088-4 0  9994
2 33446  97.8181 157.0416 0015598 337.7397  22.3135 14.77424075736976
DEIMOS-1                
1 35681U 09041A   22218.56026883  .00000106  00000+0  24154-4 0  9996
2 35681  97.7100  67.0525 0002902  75.9184 284.2353 14.72083721699142
UK-DMC 2                
1 35683U 09041C   22218.47161542  .00000161  00000+0  33385-4 0  9997
2 35683  97.7013  28.8476 0001816  88.6789 271.4630 14.71454250698864
RISAT 1                 
1 38248U 12017A   22218.49420922  .00001820  00000+0  10910-3 0  9997
2 38248  97.5525 229.3209 0005688  88.9133 271.2749 15.12213721566404
DMC3-FM1                
1 40715U 15032A   22218.49233265  .00000127  00000+0  22422-4 0  9992
2 40715  97.8405 104.3137 0006228  10.3227 349.8097 14.82159298380701
DMC3-FM2                
1 40716U 15032B   22218.51509761  .00000139  00000+0  23958-4 0  9991
2 40716  97.8448 105.0040 0008111  10.1817 349.9562 14.82151361380718
DMC3-FM3                
1 40717U 15032C   22218.53725354  .00000137  00000+0  23779-4 0  9991
2 40717  97.8485 105.9582 0010058   6.2803 353.8535 14.82179475380714
